[{"OBJECT_NAME":"STARLINK-31885","OBJECT_ID":"2024-084G","EPOCH":"2026-03-09T07:17:14.006112","MEAN_MOTION":15.27575323,"ECCENTRICITY":8.763e-5,"INCLINATION":43.0041,"RA_OF_ASC_NODE":40.5605,"ARG_OF_PERICENTER":260.812,"MEAN_ANOMALY":99.2633,"EPHEMERIS_TYPE":0,"CLASSIFICATION_TYPE":"U","NORAD_CAT_ID":59660,"ELEMENT_SET_NO":999,"REV_AT_EPOCH":10435,"BSTAR":-1.9041272e-5,"MEAN_MOTION_DOT":-7.86e-6,"MEAN_MOTION_DDOT":0},{"OBJECT_NAME":"COSMOS 2251 DEB","OBJECT_ID":"1993-036AWN","EPOCH":"2026-03-09T06:26:08.321568","MEAN_MOTION":15.11257706,"ECCENTRICITY":0.00842289,"INCLINATION":74.0116,"RA_OF_ASC_NODE":284.5024,"ARG_OF_PERICENTER":350.308,"MEAN_ANOMALY":9.6482,"EPHEMERIS_TYPE":0,"CLASSIFICATION_TYPE":"U","NORAD_CAT_ID":35996,"ELEMENT_SET_NO":999,"REV_AT_EPOCH":73632,"BSTAR":0.00055219842,"MEAN_MOTION_DOT":0.00010085,"MEAN_MOTION_DDOT":0}]
